KUIPER-00089            
1 64834U 25151U   25263.91670139  .00025164  00000+0  75095-3 0  9999
2 64834  51.8815 326.1284 0007442  33.8494  68.1090 15.34453914  5816
KUIPER-00090            
1 64835U 25151V   25263.90739746  .00034013  00000+0  94069-3 0  9994
2 64835  51.8794 326.2674 0007809  38.7216 321.4329 15.36676229 10230
KUIPER-00091            
1 64836U 25151W   25263.88308886  .00031286  00000+0  85346-3 0  9996
2 64836  51.8789 326.1078 0007748  21.6236 338.5076 15.37145473 10238
KUIPER-00092            
1 64837U 25151X   25263.91670139 -.01425639  00000+0 -66485-1 0  9997
2 64837  51.8814 326.7674 0009712  17.5798 139.9304 15.22725923  5022
KUIPER-00093            
1 64838U 25151Y   25263.91670139 -.01169968  00000+0 -65718-1 0  9996
2 64838  51.8880 327.6895 0013271  42.0100 327.3078 15.15679623  3774
KUIPER-00094            
1 64839U 25151Z   25263.91670139 -.00627764  00000+0 -21409-1 0  9998
2 64839  51.8825 326.0396 0008433  34.0879  92.3166 15.32028348  4062
KUIPER-00081            
1 65132U 25171A   25262.88222543  .00035839  00000+0  99262-3 0  9992
2 65132  51.8727 214.7470 0004037 264.0845  95.9682 15.36624984  7304
KUIPER-00088            
1 65133U 25171B   25262.23187203  .00184301  00000+0  49766-2 0  9997
2 65133  51.8762 217.8880 0004771 288.6920  71.3549 15.36532586  7209
