<?xml version="1.0" encoding="UTF-8"?>
<ndm xmlns:xsi="http://www.w3.org/2001/XMLSchema-instance" xsi:noNamespaceSchemaLocation="https://sanaregistry.org/r/ndmxml_unqualified/ndmxml-2.0.0-master-2.0.xsd">
<omm id="CCSDS_OMM_VERS" version="2.0">
<header><CREATION_DATE/><ORIGINATOR/></header><body><segment><metadata><OBJECT_NAME>KUIPER-00089</OBJECT_NAME><OBJECT_ID>2025-151U</OBJECT_ID><CENTER_NAME>EARTH</CENTER_NAME><REF_FRAME>TEME</REF_FRAME><TIME_SYSTEM>UTC</TIME_SYSTEM><MEAN_ELEMENT_THEORY>SGP4</MEAN_ELEMENT_THEORY></metadata><data><meanElements><EPOCH>2025-09-20T22:00:03.000096</EPOCH><MEAN_MOTION>15.34453914</MEAN_MOTION><ECCENTRICITY>.00074428</ECCENTRICITY><INCLINATION>51.8815</INCLINATION><RA_OF_ASC_NODE>326.1284</RA_OF_ASC_NODE><ARG_OF_PERICENTER>33.8494</ARG_OF_PERICENTER><MEAN_ANOMALY>68.1090</MEAN_ANOMALY></meanElements><tleParameters><EPHEMERIS_TYPE>0</EPHEMERIS_TYPE><CLASSIFICATION_TYPE>U</CLASSIFICATION_TYPE><NORAD_CAT_ID>64834</NORAD_CAT_ID><ELEMENT_SET_NO>999</ELEMENT_SET_NO><REV_AT_EPOCH>581</REV_AT_EPOCH><BSTAR>.75094718E-3</BSTAR><MEAN_MOTION_DOT>.25164E-3</MEAN_MOTION_DOT><MEAN_MOTION_DDOT>0</MEAN_MOTION_DDOT></tleParameters></data></segment></body></omm>
<omm id="CCSDS_OMM_VERS" version="2.0">
<header><CREATION_DATE/><ORIGINATOR/></header><body><segment><metadata><OBJECT_NAME>KUIPER-00090</OBJECT_NAME><OBJECT_ID>2025-151V</OBJECT_ID><CENTER_NAME>EARTH</CENTER_NAME><REF_FRAME>TEME</REF_FRAME><TIME_SYSTEM>UTC</TIME_SYSTEM><MEAN_ELEMENT_THEORY>SGP4</MEAN_ELEMENT_THEORY></metadata><data><meanElements><EPOCH>2025-09-20T21:46:39.140544</EPOCH><MEAN_MOTION>15.36676229</MEAN_MOTION><ECCENTRICITY>.0007809</ECCENTRICITY><INCLINATION>51.8794</INCLINATION><RA_OF_ASC_NODE>326.2674</RA_OF_ASC_NODE><ARG_OF_PERICENTER>38.7216</ARG_OF_PERICENTER><MEAN_ANOMALY>321.4329</MEAN_ANOMALY></meanElements><tleParameters><EPHEMERIS_TYPE>0</EPHEMERIS_TYPE><CLASSIFICATION_TYPE>U</CLASSIFICATION_TYPE><NORAD_CAT_ID>64835</NORAD_CAT_ID><ELEMENT_SET_NO>999</ELEMENT_SET_NO><REV_AT_EPOCH>1023</REV_AT_EPOCH><BSTAR>.94068733E-3</BSTAR><MEAN_MOTION_DOT>.34013E-3</MEAN_MOTION_DOT><MEAN_MOTION_DDOT>0</MEAN_MOTION_DDOT></tleParameters></data></segment></body></omm>
<omm id="CCSDS_OMM_VERS" version="2.0">
<header><CREATION_DATE/><ORIGINATOR/></header><body><segment><metadata><OBJECT_NAME>KUIPER-00091</OBJECT_NAME><OBJECT_ID>2025-151W</OBJECT_ID><CENTER_NAME>EARTH</CENTER_NAME><REF_FRAME>TEME</REF_FRAME><TIME_SYSTEM>UTC</TIME_SYSTEM><MEAN_ELEMENT_THEORY>SGP4</MEAN_ELEMENT_THEORY></metadata><data><meanElements><EPOCH>2025-09-20T21:11:38.877504</EPOCH><MEAN_MOTION>15.37145473</MEAN_MOTION><ECCENTRICITY>.00077483</ECCENTRICITY><INCLINATION>51.8789</INCLINATION><RA_OF_ASC_NODE>326.1078</RA_OF_ASC_NODE><ARG_OF_PERICENTER>21.6236</ARG_OF_PERICENTER><MEAN_ANOMALY>338.5076</MEAN_ANOMALY></meanElements><tleParameters><EPHEMERIS_TYPE>0</EPHEMERIS_TYPE><CLASSIFICATION_TYPE>U</CLASSIFICATION_TYPE><NORAD_CAT_ID>64836</NORAD_CAT_ID><ELEMENT_SET_NO>999</ELEMENT_SET_NO><REV_AT_EPOCH>1023</REV_AT_EPOCH><BSTAR>.85346128E-3</BSTAR><MEAN_MOTION_DOT>.31286E-3</MEAN_MOTION_DOT><MEAN_MOTION_DDOT>0</MEAN_MOTION_DDOT></tleParameters></data></segment></body></omm>
<omm id="CCSDS_OMM_VERS" version="2.0">
<header><CREATION_DATE/><ORIGINATOR/></header><body><segment><metadata><OBJECT_NAME>KUIPER-00092</OBJECT_NAME><OBJECT_ID>2025-151X</OBJECT_ID><CENTER_NAME>EARTH</CENTER_NAME><REF_FRAME>TEME</REF_FRAME><TIME_SYSTEM>UTC</TIME_SYSTEM><MEAN_ELEMENT_THEORY>SGP4</MEAN_ELEMENT_THEORY></metadata><data><meanElements><EPOCH>2025-09-20T22:00:03.000096</EPOCH><MEAN_MOTION>15.22725923</MEAN_MOTION><ECCENTRICITY>.00097128</ECCENTRICITY><INCLINATION>51.8814</INCLINATION><RA_OF_ASC_NODE>326.7674</RA_OF_ASC_NODE><ARG_OF_PERICENTER>17.5798</ARG_OF_PERICENTER><MEAN_ANOMALY>139.9304</MEAN_ANOMALY></meanElements><tleParameters><EPHEMERIS_TYPE>0</EPHEMERIS_TYPE><CLASSIFICATION_TYPE>U</CLASSIFICATION_TYPE><NORAD_CAT_ID>64837</NORAD_CAT_ID><ELEMENT_SET_NO>999</ELEMENT_SET_NO><REV_AT_EPOCH>502</REV_AT_EPOCH><BSTAR>-.66485408E-1</BSTAR><MEAN_MOTION_DOT>-.1425639E-1</MEAN_MOTION_DOT><MEAN_MOTION_DDOT>0</MEAN_MOTION_DDOT></tleParameters></data></segment></body></omm>
<omm id="CCSDS_OMM_VERS" version="2.0">
<header><CREATION_DATE/><ORIGINATOR/></header><body><segment><metadata><OBJECT_NAME>KUIPER-00093</OBJECT_NAME><OBJECT_ID>2025-151Y</OBJECT_ID><CENTER_NAME>EARTH</CENTER_NAME><REF_FRAME>TEME</REF_FRAME><TIME_SYSTEM>UTC</TIME_SYSTEM><MEAN_ELEMENT_THEORY>SGP4</MEAN_ELEMENT_THEORY></metadata><data><meanElements><EPOCH>2025-09-20T22:00:03.000096</EPOCH><MEAN_MOTION>15.15679623</MEAN_MOTION><ECCENTRICITY>.00132718</ECCENTRICITY><INCLINATION>51.8880</INCLINATION><RA_OF_ASC_NODE>327.6895</RA_OF_ASC_NODE><ARG_OF_PERICENTER>42.0100</ARG_OF_PERICENTER><MEAN_ANOMALY>327.3078</MEAN_ANOMALY></meanElements><tleParameters><EPHEMERIS_TYPE>0</EPHEMERIS_TYPE><CLASSIFICATION_TYPE>U</CLASSIFICATION_TYPE><NORAD_CAT_ID>64838</NORAD_CAT_ID><ELEMENT_SET_NO>999</ELEMENT_SET_NO><REV_AT_EPOCH>377</REV_AT_EPOCH><BSTAR>-.65718469E-1</BSTAR><MEAN_MOTION_DOT>-.1169968E-1</MEAN_MOTION_DOT><MEAN_MOTION_DDOT>0</MEAN_MOTION_DDOT></tleParameters></data></segment></body></omm>
<omm id="CCSDS_OMM_VERS" version="2.0">
<header><CREATION_DATE/><ORIGINATOR/></header><body><segment><metadata><OBJECT_NAME>KUIPER-00094</OBJECT_NAME><OBJECT_ID>2025-151Z</OBJECT_ID><CENTER_NAME>EARTH</CENTER_NAME><REF_FRAME>TEME</REF_FRAME><TIME_SYSTEM>UTC</TIME_SYSTEM><MEAN_ELEMENT_THEORY>SGP4</MEAN_ELEMENT_THEORY></metadata><data><meanElements><EPOCH>2025-09-20T22:00:03.000096</EPOCH><MEAN_MOTION>15.32028348</MEAN_MOTION><ECCENTRICITY>.00084337</ECCENTRICITY><INCLINATION>51.8825</INCLINATION><RA_OF_ASC_NODE>326.0396</RA_OF_ASC_NODE><ARG_OF_PERICENTER>34.0879</ARG_OF_PERICENTER><MEAN_ANOMALY>92.3166</MEAN_ANOMALY></meanElements><tleParameters><EPHEMERIS_TYPE>0</EPHEMERIS_TYPE><CLASSIFICATION_TYPE>U</CLASSIFICATION_TYPE><NORAD_CAT_ID>64839</NORAD_CAT_ID><ELEMENT_SET_NO>999</ELEMENT_SET_NO><REV_AT_EPOCH>406</REV_AT_EPOCH><BSTAR>-.21409457E-1</BSTAR><MEAN_MOTION_DOT>-.627764E-2</MEAN_MOTION_DOT><MEAN_MOTION_DDOT>0</MEAN_MOTION_DDOT></tleParameters></data></segment></body></omm>
<omm id="CCSDS_OMM_VERS" version="2.0">
<header><CREATION_DATE/><ORIGINATOR/></header><body><segment><metadata><OBJECT_NAME>KUIPER-00081</OBJECT_NAME><OBJECT_ID>2025-171A</OBJECT_ID><CENTER_NAME>EARTH</CENTER_NAME><REF_FRAME>TEME</REF_FRAME><TIME_SYSTEM>UTC</TIME_SYSTEM><MEAN_ELEMENT_THEORY>SGP4</MEAN_ELEMENT_THEORY></metadata><data><meanElements><EPOCH>2025-09-19T21:10:24.277152</EPOCH><MEAN_MOTION>15.36624984</MEAN_MOTION><ECCENTRICITY>.00040372</ECCENTRICITY><INCLINATION>51.8727</INCLINATION><RA_OF_ASC_NODE>214.7470</RA_OF_ASC_NODE><ARG_OF_PERICENTER>264.0845</ARG_OF_PERICENTER><MEAN_ANOMALY>95.9682</MEAN_ANOMALY></meanElements><tleParameters><EPHEMERIS_TYPE>0</EPHEMERIS_TYPE><CLASSIFICATION_TYPE>U</CLASSIFICATION_TYPE><NORAD_CAT_ID>65132</NORAD_CAT_ID><ELEMENT_SET_NO>999</ELEMENT_SET_NO><REV_AT_EPOCH>730</REV_AT_EPOCH><BSTAR>.99262195E-3</BSTAR><MEAN_MOTION_DOT>.35839E-3</MEAN_MOTION_DOT><MEAN_MOTION_DDOT>0</MEAN_MOTION_DDOT></tleParameters></data></segment></body></omm>
<omm id="CCSDS_OMM_VERS" version="2.0">
<header><CREATION_DATE/><ORIGINATOR/></header><body><segment><metadata><OBJECT_NAME>KUIPER-00088</OBJECT_NAME><OBJECT_ID>2025-171B</OBJECT_ID><CENTER_NAME>EARTH</CENTER_NAME><REF_FRAME>TEME</REF_FRAME><TIME_SYSTEM>UTC</TIME_SYSTEM><MEAN_ELEMENT_THEORY>SGP4</MEAN_ELEMENT_THEORY></metadata><data><meanElements><EPOCH>2025-09-19T05:33:53.743392</EPOCH><MEAN_MOTION>15.36532586</MEAN_MOTION><ECCENTRICITY>.00047711</ECCENTRICITY><INCLINATION>51.8762</INCLINATION><RA_OF_ASC_NODE>217.8880</RA_OF_ASC_NODE><ARG_OF_PERICENTER>288.6920</ARG_OF_PERICENTER><MEAN_ANOMALY>71.3549</MEAN_ANOMALY></meanElements><tleParameters><EPHEMERIS_TYPE>0</EPHEMERIS_TYPE><CLASSIFICATION_TYPE>U</CLASSIFICATION_TYPE><NORAD_CAT_ID>65133</NORAD_CAT_ID><ELEMENT_SET_NO>999</ELEMENT_SET_NO><REV_AT_EPOCH>720</REV_AT_EPOCH><BSTAR>.49766297E-2</BSTAR><MEAN_MOTION_DOT>.184301E-2</MEAN_MOTION_DOT><MEAN_MOTION_DDOT>0</MEAN_MOTION_DDOT></tleParameters></data></segment></body></omm>

</ndm>
